GLOBALSTAR M035         
1 25851U 99037A   26012.19397863 -.00000011  00000+0  19863-2 0  9997
2 25851  51.9979 308.8601 0013741 323.7235 177.6804 11.04541080119356
GLOBALSTAR M032         
1 25852U 99037B   26011.99108739 -.00000167  00000+0 -32198-2 0  9996
2 25852  51.9952 120.1028 0013330 156.8991 203.2411 11.19073429158169
GLOBALSTAR M051         
1 25853U 99037C   26012.03491750 -.00000081  00000+0 -22491-3 0  9992
2 25853  51.9782 257.0738 0000967  64.5393 295.5517 11.42199756156259
GLOBALSTAR M030         
1 25854U 99037D   26012.23736861 -.00000117  00000+0 -89493-3 0  9995
2 25854  51.9894  49.3923 0003408  65.1881 294.9290 11.55111903174202
GLOBALSTAR M048         
1 25872U 99041A   26011.77187406 -.00000057  00000+0  34359-3 0  9996
2 25872  51.9333 200.8037 0013177 180.0980 193.1001 11.33861805148649
GLOBALSTAR M026         
1 25873U 99041B   26012.30140142 -.00000104  00000+0 -14643-2 0  9990
2 25873  52.0022  64.3698 0001720 242.5214 157.6960 11.06843404171648
GLOBALSTAR M043         
1 25874U 99041C   26012.22716518 -.00000132  00000+0 -18868-2 0  9992
2 25874  51.9431 315.6964 0013457 310.5765 198.9056 11.25697130146411
GLOBALSTAR M028         
1 25875U 99041D   26012.23378370 -.00000075  00000+0  16157-3 0  9999
2 25875  51.9636 289.7194 0063101 164.9040 195.3722 12.50593937216332
